0 SL-12 R/B(2)
1 12851U 81061F   13281.85534603  .00000102  00000-0  10000-3 0  5018
2 12851 014.0756 341.7767 0001419 151.4137 208.5987 01.01005041 77245
0 SL-12 R/B(2)
1 12851U 81061F   13284.82535495  .00000088  00000-0  10000-3 0  5022
2 12851 014.0742 341.7458 0001411 148.4132 211.5957 01.01006290 77271
0 SL-12 R/B(2)
1 12851U 81061F   13288.78528231  .00000045  00000-0  10000-3 0  5035
2 12851 014.0725 341.7046 0001300 160.7741 199.2190 01.01008180 77311
0 SL-12 R/B(2)
1 12851U 81061F   13289.77525997  .00000000  00000-0  10000-3 0  5054
2 12851 014.0719 341.6946 0001308 151.9830 208.0139 01.01004743 77325
0 SL-12 R/B(2)
1 12851U 81061F   13293.73510156 -.00000035  00000-0  10000-3 0  5044
2 12851 014.0702 341.6531 0001269 157.6149 202.3690 01.01010499 77367
